[
    {
        "Altitude(m)": 557166.8072001787,
        "Argument of Periapsis(deg)": 0.026491964442854003,
        "Eccentricity": 0.0,
        "Inclination(deg)": 53.0,
        "Latitude(deg)": -14.278527433518624,
        "Longitude(deg)": 155.82060962215945,
        "Mean Anomaly(deg)": -17.815328529689587,
        "RAAN(deg)": 269.96057347411204,
        "Satellite Name": "Starlink Shell 1 1206",
        "Satellite Number": 1206,
        "Semi-Major Axis(m)": 6931778.249405717,
        "Time(s)": 760
    },
    {
        "Altitude(m)": 557031.0129058271,
        "Argument of Periapsis(deg)": 0.02684054292236524,
        "Eccentricity": 0.0,
        "Inclination(deg)": 53.0,
        "Latitude(deg)": -13.784135240804424,
        "Longitude(deg)": 156.17906054974827,
        "Mean Anomaly(deg)": -17.188497326132943,
        "RAAN(deg)": 269.9600547040346,
        "Satellite Name": "Starlink Shell 1 1206",
        "Satellite Number": 1206,
        "Semi-Major Axis(m)": 6931778.249405717,
        "Time(s)": 770
    },
    {
        "Altitude(m)": 556897.3034740074,
        "Argument of Periapsis(deg)": 0.027189121401876473,
        "Eccentricity": 0.0,
        "Inclination(deg)": 53.0,
        "Latitude(deg)": -13.289062909048361,
        "Longitude(deg)": 156.535844507254,
        "Mean Anomaly(deg)": -16.5616661225762,
        "RAAN(deg)": 269.95953593395717,
        "Satellite Name": "Starlink Shell 1 1206",
        "Satellite Number": 1206,
        "Semi-Major Axis(m)": 6931778.249405717,
        "Time(s)": 780
    },
    {
        "Altitude(m)": 556765.7208927344,
        "Argument of Periapsis(deg)": 0.02753769988138771,
        "Eccentricity": 0.0,
        "Inclination(deg)": 53.0,
        "Latitude(deg)": -12.793337735828931,
        "Longitude(deg)": 156.89102870352755,
        "Mean Anomaly(deg)": -15.934834919019501,
        "RAAN(deg)": 269.95901716387965,
        "Satellite Name": "Starlink Shell 1 1206",
        "Satellite Number": 1206,
        "Semi-Major Axis(m)": 6931778.249405717,
        "Time(s)": 790
    },
    {
        "Altitude(m)": 556636.306056748,
        "Argument of Periapsis(deg)": 0.02788627836089895,
        "Eccentricity": 0.0,
        "Inclination(deg)": 53.0,
        "Latitude(deg)": -12.296986678197817,
        "Longitude(deg)": 157.2446791634237,
        "Mean Anomaly(deg)": -15.308003715462753,
        "RAAN(deg)": 269.95849839380213,
        "Satellite Name": "Starlink Shell 1 1206",
        "Satellite Number": 1206,
        "Semi-Major Axis(m)": 6931778.249405717,
        "Time(s)": 800
    },
    {
        "Altitude(m)": 556509.0987498894,
        "Argument of Periapsis(deg)": 0.02823485684041019,
        "Eccentricity": 0.0,
        "Inclination(deg)": 53.0,
        "Latitude(deg)": -11.800036368192437,
        "Longitude(deg)": 157.5968612587696,
        "Mean Anomaly(deg)": -14.68117251190611,
        "RAAN(deg)": 269.9579796237247,
        "Satellite Name": "Starlink Shell 1 1206",
        "Satellite Number": 1206,
        "Semi-Major Axis(m)": 6931778.249405717,
        "Time(s)": 810
    },
    {
        "Altitude(m)": 556384.137628019,
        "Argument of Periapsis(deg)": 0.028583435319921423,
        "Eccentricity": 0.0,
        "Inclination(deg)": 53.0,
        "Latitude(deg)": -11.30251312805047,
        "Longitude(deg)": 157.94764023929767,
        "Mean Anomaly(deg)": -14.054341308349363,
        "RAAN(deg)": 269.95746085364726,
        "Satellite Name": "Starlink Shell 1 1206",
        "Satellite Number": 1206,
        "Semi-Major Axis(m)": 6931778.249405717,
        "Time(s)": 820
    },
    {
        "Altitude(m)": 556261.4602025001,
        "Argument of Periapsis(deg)": 0.028932013799432665,
        "Eccentricity": 0.0,
        "Inclination(deg)": 53.0,
        "Latitude(deg)": -10.804442985139179,
        "Longitude(deg)": 158.29708025065705,
        "Mean Anomaly(deg)": -13.427510104792564,
        "RAAN(deg)": 269.95694208356974,
        "Satellite Name": "Starlink Shell 1 1206",
        "Satellite Number": 1206,
        "Semi-Major Axis(m)": 6931778.249405717,
        "Time(s)": 830
    },
    {
        "Altitude(m)": 556141.102824223,
        "Argument of Periapsis(deg)": 0.029280592278943897,
        "Eccentricity": 0.0,
        "Inclination(deg)": 53.0,
        "Latitude(deg)": -10.305851686614066,
        "Longitude(deg)": 158.6452448652421,
        "Mean Anomaly(deg)": -12.800678901235921,
        "RAAN(deg)": 269.9564233134923,
        "Satellite Name": "Starlink Shell 1 1206",
        "Satellite Number": 1206,
        "Semi-Major Axis(m)": 6931778.249405717,
        "Time(s)": 840
    },
    {
        "Altitude(m)": 556023.1006682441,
        "Argument of Periapsis(deg)": 0.029629170758455132,
        "Eccentricity": 0.0,
        "Inclination(deg)": 53.0,
        "Latitude(deg)": -9.806764713817836,
        "Longitude(deg)": 158.99219761295382,
        "Mean Anomaly(deg)": -12.173847697679276,
        "RAAN(deg)": 269.9559045434148,
        "Satellite Name": "Starlink Shell 1 1206",
        "Satellite Number": 1206,
        "Semi-Major Axis(m)": 6931778.249405717,
        "Time(s)": 850
    },
    {
        "Altitude(m)": 555907.4877189569,
        "Argument of Periapsis(deg)": 0.02997774923796637,
        "Eccentricity": 0.0,
        "Inclination(deg)": 53.0,
        "Latitude(deg)": -9.30720729642989,
        "Longitude(deg)": 159.3380008309205,
        "Mean Anomaly(deg)": -11.547016494122477,
        "RAAN(deg)": 269.9553857733373,
        "Satellite Name": "Starlink Shell 1 1206",
        "Satellite Number": 1206,
        "Semi-Major Axis(m)": 6931778.249405717,
        "Time(s)": 860
    },
    {
        "Altitude(m)": 555794.2967559075,
        "Argument of Periapsis(deg)": 0.030326327717477602,
        "Eccentricity": 0.0,
        "Inclination(deg)": 53.0,
        "Latitude(deg)": -8.807204426384276,
        "Longitude(deg)": 159.68271703459556,
        "Mean Anomaly(deg)": -10.920185290565783,
        "RAAN(deg)": 269.9548670032599,
        "Satellite Name": "Starlink Shell 1 1206",
        "Satellite Number": 1206,
        "Semi-Major Axis(m)": 6931778.249405717,
        "Time(s)": 870
    },
    {
        "Altitude(m)": 555683.5593401685,
        "Argument of Periapsis(deg)": 0.030674906196988847,
        "Eccentricity": 0.0,
        "Inclination(deg)": 53.0,
        "Latitude(deg)": -8.306780871560058,
        "Longitude(deg)": 160.02640776732034,
        "Mean Anomaly(deg)": -10.293354087009087,
        "RAAN(deg)": 269.9543482331824,
        "Satellite Name": "Starlink Shell 1 1206",
        "Satellite Number": 1206,
        "Semi-Major Axis(m)": 6931778.249405717,
        "Time(s)": 880
    },
    {
        "Altitude(m)": 555575.3058013379,
        "Argument of Periapsis(deg)": 0.031023484676500086,
        "Eccentricity": 0.0,
        "Inclination(deg)": 53.0,
        "Latitude(deg)": -7.80596118926376,
        "Longitude(deg)": 160.36913413077417,
        "Mean Anomaly(deg)": -9.666522883452393,
        "RAAN(deg)": 269.9538294631049,
        "Satellite Name": "Starlink Shell 1 1206",
        "Satellite Number": 1206,
        "Semi-Major Axis(m)": 6931778.249405717,
        "Time(s)": 890
    },
    {
        "Altitude(m)": 555469.5652251386,
        "Argument of Periapsis(deg)": 0.03137206315601132,
        "Eccentricity": 0.0,
        "Inclination(deg)": 53.0,
        "Latitude(deg)": -7.304769739512635,
        "Longitude(deg)": 160.71095731534058,
        "Mean Anomaly(deg)": -9.039691679895594,
        "RAAN(deg)": 269.9533106930275,
        "Satellite Name": "Starlink Shell 1 1206",
        "Satellite Number": 1206,
        "Semi-Major Axis(m)": 6931778.249405717,
        "Time(s)": 900
    },
    {
        "Altitude(m)": 555366.3654416495,
        "Argument of Periapsis(deg)": 0.03172064163552255,
        "Eccentricity": 0.0,
        "Inclination(deg)": 53.0,
        "Latitude(deg)": -6.803230698128761,
        "Longitude(deg)": 161.05193761751545,
        "Mean Anomaly(deg)": -8.4128604763389,
        "RAAN(deg)": 269.95279192295,
        "Satellite Name": "Starlink Shell 1 1206",
        "Satellite Number": 1206,
        "Semi-Major Axis(m)": 6931778.249405717,
        "Time(s)": 910
    },
    {
        "Altitude(m)": 555265.7330141617,
        "Argument of Periapsis(deg)": 0.0320692201150338,
        "Eccentricity": 0.0,
        "Inclination(deg)": 53.0,
        "Latitude(deg)": -6.301368069659244,
        "Longitude(deg)": 161.3921349701075,
        "Mean Anomaly(deg)": -7.786029272782254,
        "RAAN(deg)": 269.95227315287246,
        "Satellite Name": "Starlink Shell 1 1206",
        "Satellite Number": 1206,
        "Semi-Major Axis(m)": 6931778.249405717,
        "Time(s)": 920
    },
    {
        "Altitude(m)": 555167.6932286393,
        "Argument of Periapsis(deg)": 0.032417798594545036,
        "Eccentricity": 0.0,
        "Inclination(deg)": 53.0,
        "Latitude(deg)": -5.799205700134103,
        "Longitude(deg)": 161.7316094723557,
        "Mean Anomaly(deg)": -7.159198069225405,
        "RAAN(deg)": 269.951754382795,
        "Satellite Name": "Starlink Shell 1 1206",
        "Satellite Number": 1206,
        "Semi-Major Axis(m)": 6931778.249405717,
        "Time(s)": 930
    },
    {
        "Altitude(m)": 555072.2700838698,
        "Argument of Periapsis(deg)": 0.03276637707405627,
        "Eccentricity": 0.0,
        "Inclination(deg)": 53.0,
        "Latitude(deg)": -5.2967672896698605,
        "Longitude(deg)": 162.07042040709536,
        "Mean Anomaly(deg)": -6.53236686566871,
        "RAAN(deg)": 269.95123561271754,
        "Satellite Name": "Starlink Shell 1 1206",
        "Satellite Number": 1206,
        "Semi-Major Axis(m)": 6931778.249405717,
        "Time(s)": 940
    }
]